ONEWEB-0323             
1 49106U 21075AH  23059.49398311 -.00000373  00000+0 -10712-2 0  9999
2 49106  87.8933 229.9678 0001875  94.2384 265.8958 13.12440738 76531
ONEWEB-0323             
1 49106U 21075AH  23059.49398311 -.00000373  00000+0 -10712-2 0  9999
2 49106  87.8933 229.9678 0001875  94.2384 265.8958 13.12440738 77532
ONEWEB-0323             
1 49106U 21075AH  23059.87517011 -.00000331  00000+0 -95438-3 0  9994
2 49106  87.8934 229.8921 0001877  94.3282 265.8061 13.12440196 76580
ONEWEB-0323             
1 49106U 21075AH  23060.71378048 -.00000172  00000+0 -51241-3 0  9991
2 49106  87.8934 229.7255 0001874  93.9019 266.2324 13.12440730 77693
ONEWEB-0323             
1 49106U 21075AH  23060.86625667 -.00000295  00000+0 -85417-3 0  9997
2 49106  87.8936 229.6953 0001852  93.9814 266.1526 13.12439434 76712
ONEWEB-0323             
1 49106U 21075AH  23061.70486739 -.00000039  00000+0 -14268-3 0  9998
2 49106  87.8938 229.5288 0001851  93.7341 266.3999 13.12440166 76828
ONEWEB-0323             
1 49106U 21075AH  23062.39100425  .00000146  00000+0  36936-3 0  9992
2 49106  87.8940 229.3925 0001827  93.6982 266.4356 13.12440156 77918
ONEWEB-0323             
1 49106U 21075AH  23062.46724178  .00000083  00000+0  19432-3 0  9999
2 49106  87.8941 229.3774 0001830  93.6128 266.5210 13.12440355 76928
ONEWEB-0323             
1 49106U 21075AH  23062.84842948  .00000104  00000+0  25425-3 0  9990
2 49106  87.8943 229.3017 0001817  93.5155 266.6181 13.12439915 76977
